[{"OBJECT_NAME":"STARLINK-1231","OBJECT_ID":"2020-012AL","EPOCH":"2026-03-09T22:37:47.053344","MEAN_MOTION":15.21109103,"ECCENTRICITY":0.00044424,"INCLINATION":53.0512,"RA_OF_ASC_NODE":14.6305,"ARG_OF_PERICENTER":85.7688,"MEAN_ANOMALY":274.3815,"EPHEMERIS_TYPE":0,"CLASSIFICATION_TYPE":"U","NORAD_CAT_ID":45212,"ELEMENT_SET_NO":999,"REV_AT_EPOCH":33526,"BSTAR":0.0021253625,"MEAN_MOTION_DOT":0.00047876,"MEAN_MOTION_DDOT":0},{"OBJECT_NAME":"TRANSPORTER-14 OBJECT E","OBJECT_ID":"2025-135E","EPOCH":"2026-03-09T20:41:00.309696","MEAN_MOTION":15.23884665,"ECCENTRICITY":0.00053958,"INCLINATION":97.4603,"RA_OF_ASC_NODE":185.3351,"ARG_OF_PERICENTER":147.6959,"MEAN_ANOMALY":212.461,"EPHEMERIS_TYPE":0,"CLASSIFICATION_TYPE":"U","NORAD_CAT_ID":64532,"ELEMENT_SET_NO":999,"REV_AT_EPOCH":3978,"BSTAR":0.0006581062,"MEAN_MOTION_DOT":0.0001584,"MEAN_MOTION_DDOT":0}]
